NORAD_CAT_ID,OBJECT_NAME,OBJECT_TYPE,EPOCH,MEAN_MOTION,ECCENTRICITY,INCLINATION,RA_OF_ASC_NODE,ARG_OF_PERICENTER,MEAN_ANOMALY,BSTAR,MEAN_MOTION_DOT,MEAN_MOTION_DDOT,TLE_LINE0,TLE_LINE1,TLE_LINE2,SEMIMAJOR_AXIS,PERIOD,APOGEE,PERIGEE,DECAYED
51131.0,STARLINK-3388,PAYLOAD,2024-01-17 20:10:45,15.08837921,0.0001343,53.2164,208.9791,83.9221,276.1924,3.4356e-05,2.59e-06,0.0,0 STARLINK-3388,1 51131U 22005AD  24017.84080651  .00000259  00000-0  34356-4 0  9997,2 51131  53.2164 208.9791 0001343  83.9221 276.1924 15.08837921111813,6917.887,95.438,540.681,538.823,0.0
51131.0,STARLINK-3388,PAYLOAD,2024-01-18 12:04:36,15.08839919,0.0001287,53.2162,206.0048,79.2909,280.8228,0.00013006,1.783e-05,0.0,0 STARLINK-3388,1 51131U 22005AD  24018.50320331  .00001783  00000-0  13006-3 0  9994,2 51131  53.2162 206.0048 0001287  79.2909 280.8228 15.08839919110797,6917.881,95.438,540.636,538.855,0.0
51131.0,STARLINK-3388,PAYLOAD,2024-01-18 20:01:32,15.08843529,0.0001368,53.2166,204.5186,77.4731,282.6414,0.00015369,2.159e-05,0.0,0 STARLINK-3388,1 51131U 22005AD  24018.83440100  .00002159  00000-0  15369-3 0  9999,2 51131  53.2166 204.5186 0001368  77.4731 282.6414 15.08843529110845,6917.87,95.437,540.681,538.788,0.0
51131.0,STARLINK-3388,PAYLOAD,2024-01-19 11:55:23,15.08844312,0.0001415,53.2172,201.5456,77.1951,282.9199,8.566e-05,1.076e-05,0.0,0 STARLINK-3388,1 51131U 22005AD  24019.49680282  .00001076  00000-0  85660-4 0  9998,2 51131  53.2172 201.5456 0001415  77.1951 282.9199 15.08844312110948,6917.867,95.437,540.711,538.753,0.0
51131.0,STARLINK-3388,PAYLOAD,2024-01-19 18:16:56,15.08842857,0.0001418,53.2169,200.3553,77.0863,283.0288,6.8869e-05,8.08e-06,0.0,0 STARLINK-3388,1 51131U 22005AD  24019.76176338  .00000808  00000-0  68869-4 0  9994,2 51131  53.2169 200.3553 0001418  77.0863 283.0288 15.08842857112106,6917.872,95.437,540.718,538.756,0.0
51131.0,STARLINK-3388,PAYLOAD,2024-01-19 21:27:42,15.08845492,0.0001386,53.2168,199.76,80.3386,279.7762,8.7636e-05,1.107e-05,0.0,0 STARLINK-3388,1 51131U 22005AD  24019.89424045  .00001107  00000-0  87636-4 0  9995,2 51131  53.2168 199.7600 0001386  80.3386 279.7762 15.08845492111005,6917.864,95.437,540.687,538.77,0.0
51131.0,STARLINK-3388,PAYLOAD,2024-01-20 14:56:57,15.08839738,0.0001415,53.2161,196.488,85.534,274.5814,-1.5374e-05,-5.33e-06,0.0,0 STARLINK-3388,1 51131U 22005AD  24020.62288632 -.00000533  00000-0 -15374-4 0  9992,2 51131  53.2161 196.4880 0001415  85.5340 274.5814 15.08839738111111,6917.881,95.438,540.725,538.767,0.0
51131.0,STARLINK-3388,PAYLOAD,2024-01-20 18:07:43,15.08839584,0.0001414,53.2163,195.8934,85.2017,274.9136,-2.1633e-05,-6.32e-06,0.0,0 STARLINK-3388,1 51131U 22005AD  24020.75536621 -.00000632  00000-0 -21633-4 0  9995,2 51131  53.2163 195.8934 0001414  85.2017 274.9136 15.08839584112259,6917.882,95.438,540.725,538.768,0.0
51131.0,STARLINK-3388,PAYLOAD,2024-01-21 17:58:29,15.08846132,0.000141,53.217,191.4321,100.9351,259.18,7.7607e-05,9.48e-06,0.0,0 STARLINK-3388,1 51131U 22005AD  24021.74895713  .00000948  00000-0  77607-4 0  9995,2 51131  53.2170 191.4321 0001410 100.9351 259.1800 15.08846132112408,6917.862,95.437,540.702,538.751,0.0
51131.0,STARLINK-3388,PAYLOAD,2024-01-21 21:09:16,15.0884695,0.000137,53.2168,190.8369,98.1013,262.0135,7.7604e-05,9.48e-06,0.0,0 STARLINK-3388,1 51131U 22005AD  24021.88143585  .00000948  00000-0  77604-4 0  9990,2 51131  53.2168 190.8369 0001370  98.1013 262.0135 15.08846950111308,6917.859,95.437,540.672,538.776,0.0
51131.0,STARLINK-3388,PAYLOAD,2024-01-22 11:27:45,15.08834923,0.0001359,53.216,188.1599,76.3592,283.7552,3.3989e-05,2.53e-06,0.0,0 STARLINK-3388,1 51131U 22005AD  24022.47760680  .00000253  00000-0  33989-4 0  9994,2 51131  53.2160 188.1599 0001359  76.3592 283.7552 15.08834923112516,6917.896,95.438,540.701,538.821,0.0
51131.0,STARLINK-3388,PAYLOAD,2024-01-22 16:13:54,15.08838775,0.0001283,53.2164,187.2673,88.4178,271.6961,3.6339e-05,2.9e-06,0.0,0 STARLINK-3388,1 51131U 22005AD  24022.67632402  .00000290  00000-0  36339-4 0  9999,2 51131  53.2164 187.2673 0001283  88.4178 271.6961 15.08838775111421,6917.884,95.438,540.637,538.862,0.0
51131.0,STARLINK-3388,PAYLOAD,2024-01-23 16:04:41,15.08840466,0.0001285,53.2162,182.8056,75.0944,285.019,-2.965e-05,-7.6e-06,0.0,0 STARLINK-3388,1 51131U 22005AD  24023.66992705 -.00000760  00000-0 -29650-4 0  9996,2 51131  53.2162 182.8056 0001285  75.0944 285.0190 15.08840466112693,6917.879,95.438,540.633,538.855,0.0
51131.0,STARLINK-3388,PAYLOAD,2024-01-24 14:20:05,15.08835475,0.0001375,53.2175,178.6499,94.1633,265.9516,3.8089e-05,3.18e-06,0.0,0 STARLINK-3388,1 51131U 22005AD  24024.59729073  .00000318  00000-0  38089-4 0  9998,2 51131  53.2175 178.6499 0001375  94.1633 265.9516 15.08835475111713,6917.894,95.438,540.71,538.808,0.0
51131.0,STARLINK-3388,PAYLOAD,2024-01-24 17:30:52,15.08837318,0.0001337,53.2169,178.0535,79.5786,280.5357,5.0022e-05,5.08e-06,0.0,0 STARLINK-3388,1 51131U 22005AD  24024.72976996  .00000508  00000-0  50022-4 0  9993,2 51131  53.2169 178.0535 0001337  79.5786 280.5357 15.08837318112855,6917.889,95.438,540.679,538.829,0.0
51131.0,STARLINK-3388,PAYLOAD,2024-01-25 14:10:53,15.08835592,0.000137,53.2162,174.1861,67.226,292.8877,5.5577e-05,5.97e-06,0.0,0 STARLINK-3388,1 51131U 22005AD  24025.59089370  .00000597  00000-0  55577-4 0  9998,2 51131  53.2162 174.1861 0001370  67.2260 292.8877 15.08835592111860,6917.894,95.438,540.707,538.811,0.0
51131.0,STARLINK-3388,PAYLOAD,2024-01-25 15:46:16,15.08837033,0.0001408,53.2161,173.889,65.6158,294.4981,6.765e-05,7.89e-06,0.0,0 STARLINK-3388,1 51131U 22005AD  24025.65713279  .00000789  00000-0  67650-4 0  9995,2 51131  53.2161 173.8890 0001408  65.6158 294.4981 15.08837033111874,6917.889,95.438,540.728,538.78,0.0
51131.0,STARLINK-3388,PAYLOAD,2024-01-26 14:01:39,15.08842443,0.0001633,53.2165,169.726,57.7481,302.3669,9.2373e-05,1.182e-05,0.0,0 STARLINK-3388,1 51131U 22005AD  24026.58449003  .00001182  00000-0  92373-4 0  9997,2 51131  53.2165 169.7260 0001633  57.7481 302.3669 15.08842443112014,6917.873,95.437,540.868,538.608,0.0
51131.0,STARLINK-3388,PAYLOAD,2024-01-26 18:47:48,15.08849424,0.0001557,53.2171,168.8309,68.6911,291.4247,0.00014467,2.016e-05,0.0,0 STARLINK-3388,1 51131U 22005AD  24026.78320314  .00002016  00000-0  14467-3 0  9996,2 51131  53.2171 168.8309 0001557  68.6911 291.4247 15.08849424113162,6917.852,95.437,540.794,538.639,0.0
51131.0,STARLINK-3388,PAYLOAD,2024-01-27 09:06:18,15.08828995,0.00014,53.2161,166.1559,86.8569,273.2584,-5.3584e-05,-1.14e-05,0.0,0 STARLINK-3388,1 51131U 22005AD  24027.37938437 -.00001140  00000-0 -53584-4 0  9996,2 51131  53.2161 166.1559 0001400  86.8569 273.2584 15.08828995113259,6917.914,95.438,540.748,538.811,0.0
51131.0,STARLINK-3388,PAYLOAD,2024-01-27 13:52:28,15.08830856,0.0001763,53.2166,165.2599,123.0251,237.0911,-5.8623e-05,-1.221e-05,0.0,0 STARLINK-3388,1 51131U 22005AD  24027.57810234 -.00001221  00000-0 -58623-4 0  9991,2 51131  53.2166 165.2599 0001763 123.0251 237.0911 15.08830856112162,6917.908,95.438,540.993,538.554,0.0
51131.0,STARLINK-3388,PAYLOAD,2024-01-27 15:27:51,15.08830305,0.0001493,53.2172,164.9634,114.3981,245.7167,-6.7427e-05,-1.361e-05,0.0,0 STARLINK-3388,1 51131U 22005AD  24027.64434392 -.00001361  00000-0 -67427-4 0  9993,2 51131  53.2172 164.9634 0001493 114.3981 245.7167 15.08830305112177,6917.91,95.438,540.808,538.742,0.0
51131.0,STARLINK-3388,PAYLOAD,2024-01-28 12:07:51,15.08845587,0.0001879,53.2185,161.0984,138.26,221.8536,-4.1184e-05,-9.44e-06,0.0,0 STARLINK-3388,1 51131U 22005AD  24028.50545548 -.00000944  00000-0 -41184-4 0  9993,2 51131  53.2185 161.0984 0001879 138.2600 221.8536 15.08845587113420,6917.863,95.437,541.028,538.428,0.0
51131.0,STARLINK-3388,PAYLOAD,2024-01-28 13:43:14,15.08848182,0.0002366,53.2196,160.8004,145.6725,214.4421,-2.58e-05,-6.99e-06,0.0,0 STARLINK-3388,1 51131U 22005AD  24028.57169255 -.00000699  00000-0 -25800-4 0  9991,2 51131  53.2196 160.8004 0002366 145.6725 214.4421 15.08848182112316,6917.855,95.437,541.357,538.084,0.0
51131.0,STARLINK-3388,PAYLOAD,2024-01-28 18:29:23,15.08851141,0.0001438,53.2173,159.909,89.4673,270.6484,6.602e-05,7.63e-06,0.0,0 STARLINK-3388,1 51131U 22005AD  24028.77041107  .00000763  00000-0  66020-4 0  9997,2 51131  53.2173 159.9090 0001438  89.4673 270.6484 15.08851141113460,6917.846,95.437,540.706,538.717,0.0
51131.0,STARLINK-3388,PAYLOAD,2024-01-29 11:58:37,15.08845647,0.0001438,53.2165,156.6385,99.4655,260.65,0.00023888,3.516e-05,0.0,0 STARLINK-3388,1 51131U 22005AD  24029.49905005  .00003516  00000-0  23888-3 0  9996,2 51131  53.2165 156.6385 0001438  99.4655 260.6500 15.08845647113577,6917.863,95.437,540.723,538.733,0.0
51131.0,STARLINK-3388,PAYLOAD,2024-01-30 11:49:25,15.08843525,0.0001268,53.2167,152.1865,96.1389,263.9747,-3.9884e-05,-9.23e-06,0.0,0 STARLINK-3388,1 51131U 22005AD  24030.49265919 -.00000923  00000-0 -39884-4 0  9996,2 51131  53.2167 152.1865 0001268  96.1389 263.9747 15.08843525113721,6917.87,95.437,540.612,538.857,0.0
51131.0,STARLINK-3388,PAYLOAD,2024-01-30 13:24:48,15.08843152,0.0001291,53.2167,151.8896,98.4855,261.6283,-4.0891e-05,-9.39e-06,0.0,0 STARLINK-3388,1 51131U 22005AD  24030.55889897 -.00000939  00000-0 -40891-4 0  9997,2 51131  53.2167 151.8896 0001291  98.4855 261.6283 15.08843152112613,6917.871,95.437,540.629,538.843,0.0
51131.0,STARLINK-3388,PAYLOAD,2024-01-30 15:00:11,15.08844551,0.0001484,53.2164,151.5913,111.3089,248.8062,-3.8506e-05,-9.01e-06,0.0,0 STARLINK-3388,1 51131U 22005AD  24030.62513707 -.00000901  00000-0 -38506-4 0  9998,2 51131  53.2164 151.5913 0001484 111.3089 248.8062 15.08844551112622,6917.866,95.437,540.758,538.705,0.0
51131.0,STARLINK-3388,PAYLOAD,2024-01-31 11:40:12,15.08849833,0.0001521,53.2169,147.7193,102.2831,257.8332,-0.00012272,-2.241e-05,0.0,0 STARLINK-3388,1 51131U 22005AD  24031.48625491 -.00002241  00000-0 -12272-3 0  9997,2 51131  53.2169 147.7193 0001521 102.2831 257.8332 15.08849833112752,6917.85,95.437,540.768,538.663,0.0
